[{"OBJECT_NAME":"BRO-11","OBJECT_ID":"2023-174J","EPOCH":"2026-03-09T23:01:09.890400","MEAN_MOTION":15.26267731,"ECCENTRICITY":0.00104518,"INCLINATION":97.3961,"RA_OF_ASC_NODE":146.7679,"ARG_OF_PERICENTER":189.9892,"MEAN_ANOMALY":170.1141,"EPHEMERIS_TYPE":0,"CLASSIFICATION_TYPE":"U","NORAD_CAT_ID":58264,"ELEMENT_SET_NO":999,"REV_AT_EPOCH":12961,"BSTAR":0.00032296323,"MEAN_MOTION_DOT":8.313e-5,"MEAN_MOTION_DDOT":0},{"OBJECT_NAME":"STARLINK-36208","OBJECT_ID":"2025-299G","EPOCH":"2026-03-09T22:00:01.999584","MEAN_MOTION":15.27598092,"ECCENTRICITY":0.00010772,"INCLINATION":42.9994,"RA_OF_ASC_NODE":167.3604,"ARG_OF_PERICENTER":316.6192,"MEAN_ANOMALY":92.7186,"EPHEMERIS_TYPE":0,"CLASSIFICATION_TYPE":"U","NORAD_CAT_ID":67108,"ELEMENT_SET_NO":999,"REV_AT_EPOCH":579,"BSTAR":-0.00043004302,"MEAN_MOTION_DOT":-0.00012083,"MEAN_MOTION_DDOT":0}]
